CELTEE 1                
1 41850U 16067C   18054.17763357  .00000586  00000-0  56545-4 0  9993
2 41850  97.9284 140.8844 0009193 174.2259 185.9069 14.96745919 70044
OPTICUBE 04             
1 41851U 16067D   18054.26626869  .00000120  00000-0  15827-4 0  9992
2 41851  97.9288 140.9185 0008901 174.3145 185.8179 14.96627101 70053
AEROCUBE 8D             
1 41852U 16067E   18053.88739986 -.00000173  00000-0 -98690-5 0  9995
2 41852  97.9295 140.3929 0009743 178.5279 181.5972 14.96415186 69983
AEROCUBE 8C             
1 41853U 16067F   18054.30004088  .00000265  00000-0  28769-4 0  9991
2 41853  97.9291 140.7811 0010293 178.1816 181.9444 14.96378114 70045
PROMETHEUS 2-1          
1 41854U 16067G   18053.91176051  .00000819  00000-0  77463-4 0  9998
2 41854  97.9300 140.3729 0010677 178.2561 181.8699 14.96442935 69980
PROMETHEUS 2-3          
1 41855U 16067H   18054.18166442  .00000906  00000-0  85141-4 0  9991
2 41855  97.9303 140.6483 0010849 177.6039 182.5235 14.96441538 70027
STARS-C                 
1 41895U 98067KR  18054.48631943  .00787355  34634-3  85184-3 0  9990
2 41895  51.6258 181.2745 0008209 330.3044  29.7503 16.09267304 67591
ITF-2                   
1 41932U 98067KU  18053.81278468  .00021948  00000-0  18631-3 0  9996
2 41932  51.6367 207.1977 0003733 128.1249 232.0085 15.69567799 62760
WASEDA-SAT3             
1 41933U 98067KV  18053.80338759  .00029624  00000-0  22026-3 0  9998
2 41933  51.6339 204.0463 0003159 134.4828 225.6429 15.72559899 62802
AOBA-VELOX 3            
1 41935U 98067KX  18054.41484833  .00034637  00000-0  26845-3 0  9996
2 41935  51.6356 202.1876 0002938 135.3000 224.8235 15.71490368 62985
INS-1B                  
1 41954U 17008G   18053.92167662  .00001119  00000-0  51068-4 0  9991
2 41954  97.4609 118.7856 0010472  42.2740 317.9302 15.22667744 56616
BGUSAT                  
1 41999U 17008BD  18053.87471912  .00001885  00000-0  80612-4 0  9997
2 41999  97.4649 119.4738 0009864  60.0086 300.2129 15.24051579 56011
DIDO-2                  
1 42000U 17008BE  18053.88065577  .00000818  00000-0  37863-4 0  9993
2 42000  97.4628 119.1091 0010112  59.5426 300.6808 15.22944822 56007
PEASSS                  
1 42015U 17008BV  18053.91789045  .00001030  00000-0  45877-4 0  9997
2 42015  97.4623 119.4729 0008091  67.5918 292.6176 15.23695583 56519
AL-FARABI 1             
1 42016U 17008BW  18053.87294281  .00001259  00000-0  54882-4 0  9995
2 42016  97.4628 119.5500 0007984  68.3956 291.8131 15.24033857 56630
NAYIF-1 (EO-88)         
1 42017U 17008BX  18054.39414778  .00001442  00000-0  62378-4 0  9992
2 42017  97.4626 120.0741 0007943  67.1277 293.0798 15.24057626 56735
HAVELSAT                
1 42700U 98067LH  18054.46573284  .00022656  00000-0  22715-3 0  9991
2 42700  51.6364 213.7947 0004600 183.8404 176.2557 15.65417313 44176
COLUMBIA                
1 42702U 98067LK  18053.77155828  .00467749  10405-3  94815-3 0  9995
2 42702  51.6245 199.8956 0006934 305.8770  54.1595 15.98933326 44218
SGSAT                   
1 42703U 98067LL  18054.46251615  .00099977  00000-0  55719-3 0  9995
2 42703  51.6333 204.6582 0000734 249.2956 110.7967 15.78637079 44201
CXBN-2                  
1 42704U 98067LM  18053.82000863  .00018433  00000-0  18908-3 0  9999
2 42704  51.6364 217.7410 0001712 121.6594 238.4568 15.64998599 43980
ICECUBE                 
1 42705U 98067LN  18054.46744183  .00032489  00000-0  28296-3 0  9999
2 42705  51.6404 211.6105 0001599 115.9683 244.1479 15.68707777 44186
PHOENIX                 
1 42706U 98067LP  18054.45378241  .00020053  00000-0  20848-3 0  9996
2 42706  51.6361 214.4682 0001130 137.8319 222.2763 15.64592255 44070
X-CUBESAT               
1 42707U 98067LQ  18054.47188319  .00024252  00000-0  24139-3 0  9996
2 42707  51.6340 213.8062 0001096 147.2656 212.8408 15.65563696 44072
QBEE50-LTU-OC           
1 42708U 98067LR  18054.43591692  .00022740  00000-0  23054-3 0  9990
2 42708  51.6360 214.3331 0001186 145.0093 215.0980 15.65142217 44028
ALTAIR PATHFINDER       
1 42711U 98067LS  18054.43989120  .00013368  00000-0  15979-3 0  9994
2 42711  51.6362 218.1210 0004057 115.2031 244.9384 15.61343701 43680
SHARC                   
1 42712U 98067LT  18054.06230344  .00008987  00000-0  11373-3 0  9996
2 42712  51.6381 220.8819 0002488 120.0819 240.0421 15.60335193 43854
ZA-AEROSAT              
1 42713U 98067LU  18053.88397102  .00015534  00000-0  17019-3 0  9991
2 42713  51.6355 218.9059 0002145 109.4945 250.6281 15.63463255 43621
LINK                    
1 42714U 98067LV  18053.85773320  .00033552  00000-0  29137-3 0  9993
2 42714  51.6324 214.9303 0001449 121.1357 238.9782 15.68761796 43788
CSUNSAT 1               
1 42715U 98067LW  18053.86957874  .00016070  00000-0  17398-3 0  9995
2 42715  51.6368 218.8177 0003855 106.4228 253.7191 15.63735328 43624
SPACECUBE               
1 42717U 98067LY  18053.81956692  .00018648  00000-0  19103-3 0  9998
2 42717  51.6353 217.7189 0003323 182.4960 177.6019 15.65020386 43006
HOOPOE                  
1 42718U 98067LZ  18053.86027869  .00023974  00000-0  23235-3 0  9998
2 42718  51.6359 216.4940 0003115 183.1014 176.9963 15.66237732 43029
CHALLENGER              
1 42721U 98067MA  18053.85282937  .00041461  00000-0  32739-3 0  9990
2 42721  51.6337 213.3964 0004555 173.7686 186.3369 15.70950124 42767
NJUST-1                 
1 42722U 98067MB  18053.56621585  .00013463  00000-0  15209-3 0  9999
2 42722  51.6366 221.2892 0006110 160.9416 199.1808 15.62799068 42631
UNSW-ECO                
1 42723U 98067MC  18053.44518877  .00022178  00000-0  21394-3 0  9991
2 42723  51.6373 218.9849 0005340 163.1643 196.9531 15.66398512 42637
LILACSAT-1              
1 42725U 98067ME  18053.55335009  .00017056  00000-0  18174-3 0  9990
2 42725  51.6364 220.4537 0005057 164.2283 195.8870 15.64085810 42566
NSIGHT-1                
1 42726U 98067MF  18053.88316431  .00007955  00000-0  10437-3 0  9996
2 42726  51.6383 222.6799 0005880 163.0810 197.0380 15.59557987 42551
SNUSAT-1                
1 42727U 98067MG  18053.49432018  .00016030  00000-0  17161-3 0  9999
2 42727  51.6349 220.7783 0006583 126.4760 233.6843 15.64011303 42503
I-INSPIRE II            
1 42731U 98067ML  18053.85847602  .00028015  00000-0  26384-3 0  9996
2 42731  51.6351 216.4556 0005253 115.2844 244.8696 15.66848350 42482
POLYITAN-2-SAU          
1 42732U 98067MM  18053.82620471  .00020668  00000-0  20821-3 0  9993
2 42732  51.6357 217.7535 0005651 113.0245 247.1347 15.65356232 42462
SNUSAT-1B               
1 42733U 98067MN  18053.82802959  .00018306  00000-0  19135-3 0  9999
2 42733  51.6360 218.5217 0005884 116.2693 243.8908 15.64512025 42451
EXALTA-1                
1 42734U 98067MP  18053.86348916  .00028362  00000-0  26633-3 0  9996
2 42734  51.6339 216.4853 0006394 141.4195 218.7259 15.66906534 42437
BEEAGLESAT              
1 42736U 98067MR  18053.81651194  .00016405  00000-0  17680-3 0  9995
2 42736  51.6355 219.1943 0006331 158.9342 201.1914 15.63822104 42504
ATLANTIS                
1 42737U 98067MS  18053.51301766  .00154696  00000-0  59466-3 0  9993
2 42737  51.6249 206.4723 0002728 247.6101 112.4614 15.86383420 42539
UCLSAT                  
1 42765U 17036A   18053.85534297  .00001100  00000-0  51848-4 0  9993
2 42765  97.4166 115.4766 0013496 114.6528 245.6115 15.21527885 37917
LITUANICASAT-2          
1 42768U 17036D   18054.39596105  .00001937  00000-0  90492-4 0  9998
2 42768  97.4176 115.6867 0017675 104.3957 255.9241 15.20866928 37265
AALTO-1                 
1 42775U 17036L   18053.92930396  .00000707  00000-0  35400-4 0  9990
2 42775  97.4163 115.2265 0015953 103.3838 256.9177 15.20528296 37139
URSA MAIOR              
1 42776U 17036M   18053.92120075  .00000738  00000-0  36747-4 0  9995
2 42776  97.4168 115.2481 0015808 103.6601 256.6396 15.20593797 37133
COMPASS 2               
1 42777U 17036N   18053.90857319  .00001352  00000-0  63352-4 0  9997
2 42777  97.4185 115.4538 0014765 107.3450 252.9402 15.21317816 37136
DIAMOND RED             
1 42783U 17036U   18054.22151796  .00000974  00000-0  46669-4 0  9997
2 42783  97.4167 115.7547 0014110 113.4684 246.8036 15.21202608 37189
PEGASUS                 
1 42784U 17036V   18053.94490494  .00000977  00000-0  46627-4 0  9994
2 42784  97.4169 115.5176 0014030 114.4787 245.7913 15.21357707 37143
DIAMOND GREEN           
1 42785U 17036W   18054.22064993  .00001001  00000-0  47871-4 0  9999
2 42785  97.4169 115.7631 0014000 113.9684 246.3019 15.21205753 37179
DIAMOND BLUE            
1 42786U 17036X   18054.41706027  .00000961  00000-0  46109-4 0  9999
2 42786  97.4169 115.9574 0013836 113.6303 246.6387 15.21202349 37202
NUDTSAT                 
1 42787U 17036Y   18054.23013896  .00001612  00000-0  73943-4 0  9995
2 42787  97.4174 115.9036 0013628 113.7392 246.5276 15.21801769 37038
SUCHAI                  
1 42788U 17036Z   18053.85460985  .00001170  00000-0  54885-4 0  9991
2 42788  97.4170 115.4838 0013658 114.7849 245.4809 15.21574544 37208
SKCUBE                  
1 42789U 17036AA  18053.78633338  .00001094  00000-0  51542-4 0  9990
2 42789  97.4169 115.4184 0013477 114.9232 245.3406 15.21560561 37114
VZLUSAT-1               
1 42790U 17036AB  18053.82684890  .00001442  00000-0  66428-4 0  9992
2 42790  97.4170 115.5143 0013162 115.1976 245.0626 15.21829343 37121
ROBUSTA-1B              
1 42792U 17036AD  18054.22574095  .00001234  00000-0  57501-4 0  9995
2 42792  97.4166 115.8921 0013069 114.5175 245.7425 15.21699705 37193
CICERO 6                
1 42793U 17036AE  18054.47518001  .00000748  00000-0  36104-4 0  9993
2 42793  97.4161 116.1615 0012190 114.2761 245.9749 15.21650693 37302
D-SAT                   
1 42794U 17036AF  18053.87518913  .00000091  00000-0  13778-4 0  9992
2 42794  97.6084 112.7577 0125896 302.9368  55.9793 14.90785095 36694
